{
  "type" : "FeatureCollection",
  "features" : [
    {
      "type" : "Feature",
      "id" : 2,
      "geometry" : {
        "type" : "Point",
        "coordinates" : [
          121.40904298106149,
          23.687138980295916,
          0
        ]
      },
      "properties" : {
        "OBJECTID" : 2,
        "affiliatedbasin" : 2420,
        "affiliatedsubsidiarybasinrivercode" : 242020,
        "affiliatedsubsubsidiarybasinrivercode" : null,
        "alertlevel1" : null,
        "alertlevel2" : null,
        "alertlevel3" : null,
        "areacode" : 10015070,
        "basinidentifier" : "2420H036",
        "brittlenessstatus" : 1,
        "cardrivedistanceinhours" : 2,
        "cityelectricitysupplystatus" : 0,
        "constructionmanagement" : 0,
        "crossriverstructuresnameofequipment" : "馬鞍溪橋",
        "datacollectionfrequecy" : 2,
        "datasubmitted" : 1,
        "drainagestatus" : 0,
        "ecologicalenvironmentmonitoring" : 0,
        "elevationofwaterlevelzeropoint" : 17512,
        "englishaddress" : "Datong Vil., Guangfu Township, Hualien County",
        "englishname" : "MA-AN-CHI BRIDGE",
        "englishrivername" : "Matai'an River",
        "equipmentstatus" : 1,
        "equipmentstatusoncrossriverstructures" : 1,
        "establishdate" : "1980-01-01T00:00:00",
        "floodpreventionpurpose" : 1,
        "highsedimentstatus" : 1,
        "hydrofacilitymanagement" : 0,
        "hydrologicalmonitoringpurpose" : 1,
        "lightningstatus" : 1,
        "locationaddress" : "花蓮縣光復鄉大同村",
        "locationbytwd67_xy" : "290888.19 2620640.91",
        "locationbytwd97_xy" : "291716.92 2620435.19",
        "locationbytwd97_x" : 291716.91999999998,
        "locationbytwd97_y" : 2620435.1899999999,
        "maintaincycle" : 2,
        "noperiodicaldatasubmissionreason" : 0,
        "normalobservationtype" : 1,
        "obervationitems" : 946771200000,
        "observationmethod" : 1,
        "observationreason" : null,
        "observationstatus" : "現存",
        "observatoryidentifier" : "3132019RV2420H036",
        "observatoryname" : "馬鞍溪橋",
        "onsitedatacollection" : 1,
        "otherrequirement" : 0,
        "realtimedatadeliveryfrequency" : 1,
        "realtimedatadeliveryfrequencyinflooddefencetime" : 1,
        "remarks" : null,
        "replacestatus" : null,
        "rivername" : "馬太鞍溪",
        "riversectiondepositionanderosionchange" : 3,
        "shortobservationtype" : 0,
        "solarpotentialdemage" : 1,
        "solarstatus" : 1,
        "stealstatus" : 1,
        "straightriverstatus" : 1,
        "subsidencestatus" : 0,
        "sunlightcoveragestatus" : 0,
        "sunshinestatus" : 1,
        "tidestatus" : 0,
        "transmissionequipment" : 1,
        "verticaldatumsourcestatus" : 0,
        "walkdistanceinhours" : 2,
        "waterdrawstatus" : 0,
        "waterresourcedistrictidentifier" : 40,
        "waterresourcenumber" : 9,
        "watershedarea" : 136.46000000000001,
        "wirelesstransmissiontype" : "1,6",
        "wirelesstransmissiontype_X" : 6,
        "wirelesstransmissiontype_Y" : 1
      }
    }
  ]
}